[{"OBJECT_NAME":"STARLINK-30546","OBJECT_ID":"2023-153N","EPOCH":"2026-03-09T08:53:26.234592","MEAN_MOTION":15.26738496,"ECCENTRICITY":0.00013047,"INCLINATION":43.0003,"RA_OF_ASC_NODE":68.3277,"ARG_OF_PERICENTER":275.3753,"MEAN_ANOMALY":84.6949,"EPHEMERIS_TYPE":0,"CLASSIFICATION_TYPE":"U","NORAD_CAT_ID":58003,"ELEMENT_SET_NO":999,"REV_AT_EPOCH":13485,"BSTAR":-3.703023e-6,"MEAN_MOTION_DOT":-3.59e-6,"MEAN_MOTION_DDOT":0},{"OBJECT_NAME":"QAEM 100 R\/B","OBJECT_ID":"2024-165A","EPOCH":"2026-03-09T23:28:11.930304","MEAN_MOTION":15.14187295,"ECCENTRICITY":0.0059581,"INCLINATION":64.0756,"RA_OF_ASC_NODE":359.5576,"ARG_OF_PERICENTER":312.0209,"MEAN_ANOMALY":47.5844,"EPHEMERIS_TYPE":0,"CLASSIFICATION_TYPE":"U","NORAD_CAT_ID":61071,"ELEMENT_SET_NO":999,"REV_AT_EPOCH":8183,"BSTAR":0.0003372463,"MEAN_MOTION_DOT":6.252e-5,"MEAN_MOTION_DDOT":0}]
